     3.04           NAVIGATION DATA     G                   RINEX VERSION / TYPE
JPS2RIN v.2.0.168   BASH SCRIPT         20240305 010108 UTC PGM / RUN BY / DATE 
gfzrnx-1.13-7761    FILE MERGE          20240306 000318 UTC COMMENT             
GPUT -9.3132257462E-10-3.552713679E-15 405504 2304          TIME SYSTEM CORR    
    18                  GPS                                 LEAP SECONDS        
                                                            COMMENT             
   ------------------------------------------------------   COMMENT             
      # of NAV. EPOCHS based on # of FILE CONTRIBUTIONS     COMMENT             
   ------------------------------------------------------   COMMENT             
                                                            COMMENT             
BRD_HD  PRN T    =1   <5  <10  <15  <25  <50 >=50    #EPO   COMMENT             
BRD_LN  -------------------------------------------------   COMMENT             
BRD_STK G01 _     2    5    1    .    .    .    .       8   COMMENT             
BRD_STK G02 _     .    6    .    .    .    .    .       6   COMMENT             
BRD_STK G03 _     2    3    1    .    .    .    .       6   COMMENT             
BRD_STK G04 _     1    3    2    .    .    .    .       6   COMMENT             
BRD_STK G05 _     1    7    .    .    .    .    .       8   COMMENT             
BRD_STK G06 _     1    7    1    .    .    .    .       9   COMMENT             
BRD_STK G07 _     2    6    .    .    .    .    .       8   COMMENT             
BRD_STK G08 _     .    7    .    .    .    .    .       7   COMMENT             
BRD_STK G09 _     2    5    .    .    .    .    .       7   COMMENT             
BRD_STK G10 _     1    6    .    .    .    .    .       7   COMMENT             
BRD_STK G11 _     2    5    .    .    .    .    .       7   COMMENT             
BRD_STK G12 _     .    3    1    .    .    .    .       4   COMMENT             
BRD_STK G13 _     .    6    .    .    .    .    .       6   COMMENT             
BRD_STK G14 _     1    7    .    .    .    .    .       8   COMMENT             
BRD_STK G15 _     1    5    1    .    .    .    .       7   COMMENT             
BRD_STK G16 _     3    5    .    .    .    .    .       8   COMMENT             
BRD_STK G17 _     1    5    1    .    .    .    .       7   COMMENT             
BRD_STK G18 _     .    6    .    .    .    .    .       6   COMMENT             
BRD_STK G19 _     2    6    1    .    .    .    .       9   COMMENT             
BRD_STK G20 _     .    6    .    .    .    .    .       6   COMMENT             
BRD_STK G21 _     .    5    1    .    .    .    .       6   COMMENT             
BRD_STK G22 _     .    6    .    .    .    .    .       6   COMMENT             
BRD_STK G23 _     .    5    2    .    .    .    .       7   COMMENT             
BRD_STK G24 _     .    5    1    .    .    .    .       6   COMMENT             
BRD_STK G25 _     .    4    1    .    .    .    .       5   COMMENT             
BRD_STK G26 _     2    4    1    .    .    .    .       7   COMMENT             
BRD_STK G27 _     .    6    .    .    .    .    .       6   COMMENT             
BRD_STK G28 _     1    7    .    .    .    .    .       8   COMMENT             
BRD_STK G29 _     1    7    .    .    .    .    .       8   COMMENT             
BRD_STK G30 _     .    5    .    .    .    .    .       5   COMMENT             
BRD_STK G31 _     1    6    .    .    .    .    .       7   COMMENT             
BRD_STK G32 _     .    6    1    .    .    .    .       7   COMMENT             
BRD_LN  -------------------------------------------------   COMMENT             
BRD_SYS G   -                                         218   COMMENT             
                                                            COMMENT             
BRD_LN  -------------------------------------------------   COMMENT             
BRD_ALL                                               218   COMMENT             
                                                            COMMENT             
                                                            END OF HEADER
G09 2024 03 05 02 00 00 1.135780476034e-04 1.296029950026e-11 0.000000000000e+00
     7.600000000000e+01-6.662500000000e+01 4.443756528868e-09-9.941321835387e-02
    -3.546476364136e-06 2.726286416873e-03 9.093433618546e-06 5.153714101791e+03
     1.800000000000e+05-1.490116119385e-08-6.877475623722e-01 1.676380634308e-08
     9.580475536118e-01 2.020312500000e+02 2.017659306695e+00-7.893900241202e-09
     2.310810540249e-10 1.000000000000e+00 2.304000000000e+03 0.000000000000e+00
     2.000000000000e+00 0.000000000000e+00 1.396984000000e-09 7.600000000000e+01
     1.728300000000e+05 4.000000000000e+00 0.000000000000e+00 0.000000000000e+00
G11 2024 03 05 02 00 00-5.965828895569e-04-1.205080479849e-11 0.000000000000e+00
     9.200000000000e+01 2.568750000000e+01 4.533760277885e-09-1.313114148818e+00
     1.369044184685e-06 1.220068312250e-03 3.080815076828e-06 5.153673521042e+03
     1.800000000000e+05 3.166496753693e-08-2.710403495025e+00 2.421438694000e-08
     9.663776549254e-01 3.240937500000e+02-2.484770639596e+00-8.213556413307e-09
     1.028614274485e-10 1.000000000000e+00 2.304000000000e+03 0.000000000000e+00
     2.000000000000e+00 0.000000000000e+00-8.381903000000e-09 9.200000000000e+01
     1.728300000000e+05 4.000000000000e+00 0.000000000000e+00 0.000000000000e+00
G16 2024 03 05 02 00 00-3.485102206469e-04 8.640199666843e-12 0.000000000000e+00
     8.500000000000e+01 4.296875000000e+01 4.491258507516e-09 4.352355329184e-01
     2.361834049225e-06 1.400884392206e-02 8.089467883110e-06 5.153739324570e+03
     1.800000000000e+05-1.154839992523e-07 1.517640613217e+00 1.676380634308e-07
     9.622319411198e-01 2.258750000000e+02 8.292954839199e-01-8.056407010261e-09
    -3.885876148053e-10 1.000000000000e+00 2.304000000000e+03 0.000000000000e+00
     2.000000000000e+00 0.000000000000e+00-1.024455000000e-08 8.500000000000e+01
     1.728900000000e+05 4.000000000000e+00 0.000000000000e+00 0.000000000000e+00
G19 2024 03 05 02 00 00 4.494958557189e-04 5.343281372916e-12 0.000000000000e+00
     8.400000000000e+01 8.818750000000e+01 4.229104730616e-09 1.536340113407e+00
     4.535540938377e-06 9.537073201500e-03 7.035210728645e-06 5.153695550919e+03
     1.800000000000e+05 1.210719347000e-07 2.583455544185e+00 6.891787052155e-08
     9.694300964033e-01 2.460312500000e+02 2.488476942550e+00-7.866041937935e-09
    -1.253623647028e-10 1.000000000000e+00 2.304000000000e+03 0.000000000000e+00
     2.000000000000e+00 0.000000000000e+00-1.536682000000e-08 8.400000000000e+01
     1.728000000000e+05 4.000000000000e+00 0.000000000000e+00 0.000000000000e+00
G20 2024 03 05 02 00 00 3.851302899420e-04-1.364242052659e-12 0.000000000000e+00
     7.100000000000e+01-7.884375000000e+01 4.805200155874e-09-2.012015168325e+00
    -3.920868039131e-06 3.808657056652e-03 3.775581717491e-06 5.153736377716e+03
     1.800000000000e+05 8.009374141693e-08-1.886188248683e+00-5.215406417847e-08
     9.523855252171e-01 3.013437500000e+02-2.615939643061e+00-8.299274269514e-09
     2.142946405177e-11 1.000000000000e+00 2.304000000000e+03 0.000000000000e+00
     2.000000000000e+00 0.000000000000e+00-8.381903000000e-09 7.100000000000e+01
     1.746000000000e+05 4.000000000000e+00 0.000000000000e+00 0.000000000000e+00
G26 2024 03 05 02 00 00 1.832507550716e-04-4.320099833421e-12 0.000000000000e+00
     7.800000000000e+01 3.521875000000e+01 5.262004897911e-09 1.295851618930e+00
     1.903623342514e-06 8.839480346069e-03 7.636845111847e-06 5.153594966888e+03
     1.800000000000e+05-3.539025783539e-08 1.353056901874e+00 8.381903171539e-08
     9.314053196501e-01 2.178437500000e+02 5.353734764999e-01-8.338204462542e-09
    -3.935878230841e-10 1.000000000000e+00 2.304000000000e+03 0.000000000000e+00
     2.000000000000e+00 0.000000000000e+00 6.984919000000e-09 7.800000000000e+01
     1.728300000000e+05 4.000000000000e+00 0.000000000000e+00 0.000000000000e+00
G29 2024 03 05 02 00 00-6.055952981114e-04 7.958078640513e-13 0.000000000000e+00
     8.300000000000e+01 8.003125000000e+01 4.115528571141e-09-5.029249455512e-01
     4.041939973831e-06 2.658094628714e-03 7.078051567078e-06 5.153637691498e+03
     1.800000000000e+05-3.725290298462e-09 2.553888629770e+00-1.303851604462e-08
     9.726342307826e-01 2.478437500000e+02 2.493534983272e+00-7.911043812443e-09
    -2.821546100149e-11 1.000000000000e+00 2.304000000000e+03 0.000000000000e+00
     2.000000000000e+00 0.000000000000e+00-1.024455000000e-08 8.300000000000e+01
     1.772700000000e+05 4.000000000000e+00 0.000000000000e+00 0.000000000000e+00
G30 2024 03 05 02 00 00-4.241424612701e-04 5.115907697473e-12 0.000000000000e+00
     7.700000000000e+01 1.003125000000e+01 5.198787978958e-09 2.787021444870e+00
     4.433095455170e-07 6.869805161841e-03 7.597729563713e-06 5.153675361633e+03
     1.800000000000e+05 3.725290298462e-09 3.859411155395e-01-8.754432201386e-08
     9.357423626597e-01 2.198750000000e+02-2.520945737840e+00-8.092837099149e-09
     1.564350875779e-10 1.000000000000e+00 2.304000000000e+03 0.000000000000e+00
     2.000000000000e+00 0.000000000000e+00 3.725290000000e-09 7.700000000000e+01
     1.757100000000e+05 4.000000000000e+00 0.000000000000e+00 0.000000000000e+00
G06 2024 03 05 03 59 44 3.813505172729e-04-1.591615728103e-11 0.000000000000e+00
     3.000000000000e+00 2.934375000000e+01 4.045882812973e-09-1.450749033680e+00
     1.408159732819e-06 3.134260186926e-03 3.216788172722e-06 5.153577491760e+03
     1.871840000000e+05-1.005828380585e-07-2.745370869545e+00-4.842877388000e-08
     9.899440056099e-01 3.362187500000e+02-7.432625956191e-01-8.084622471263e-09
     1.382200431339e-10 1.000000000000e+00 2.304000000000e+03 0.000000000000e+00
     2.000000000000e+00 0.000000000000e+00 3.725290000000e-09 3.000000000000e+00
     1.800300000000e+05 4.000000000000e+00 0.000000000000e+00 0.000000000000e+00
